IRIDIUM 144             
1 43249U 18030A   24305.57026659  .00001110  00000+0  38924-3 0  9999
2 43249  86.4031 178.5279 0002364  80.6624 279.4839 14.34213522345074
IRIDIUM 149             
1 43250U 18030B   24305.36730104  .00001123  00000+0  39378-3 0  9993
2 43250  86.4022 178.5864 0001949  78.6319 281.5095 14.34224355345043
IRIDIUM 157             
1 43251U 18030C   24305.73517574  .00000509  00000+0  17482-3 0  9998
2 43251  86.4027 178.4725 0001792  81.4634 278.6765 14.34214966345073
IRIDIUM 140             
1 43252U 18030D   24305.61466901  .00000422  00000+0  14370-3 0  9990
2 43252  86.4022 178.5371 0002195  86.6828 273.4618 14.34217804345116
IRIDIUM 145             
1 43253U 18030E   24305.74151048  .00001173  00000+0  41164-3 0  9993
2 43253  86.4023 178.4577 0002440  74.1125 286.0340 14.34225711345062
IRIDIUM 146             
1 43254U 18030F   24305.37365046  .00001147  00000+0  40234-3 0  9996
2 43254  86.4021 178.6259 0002210  75.0918 285.0523 14.34217006345021
IRIDIUM 148             
1 43255U 18030G   24305.62100998  .00000854  00000+0  29771-3 0  9995
2 43255  86.4024 178.5561 0002044  77.1238 283.0186 14.34220725345107
IRIDIUM 142             
1 43256U 18030H   24305.65906688  .00000756  00000+0  26279-3 0  9990
2 43256  86.4021 178.4512 0002147  73.1412 287.0019 14.34215919345067
